STARLINK-37519          
1 69298U 26119C   26177.25802182 -.00125276  00000+0 -24819-2 0  9994
2 69298  97.2845 203.1731 0003832 327.3413  32.7600 15.47468758  5443
STARLINK-37455          
1 69299U 26119D   26177.25002315  .00021460  00000+0  39524-3 0  9993
2 69299  97.2858 203.0834 0001341  93.6275  26.4040 15.49182734  5349
STARLINK-37456          
1 69300U 26119E   26177.25919558 -.01302888  00000+0 -30790-1 0  9995
2 69300  97.2854 203.1719 0002391  38.9341 321.2080 15.44853970  5446
STARLINK-37630          
1 69301U 26119F   26177.26123179  .00063196  00000+0  11542-2 0  9991
2 69301  97.2863 203.0152 0000641  46.6515 313.4790 15.49193691  5434
STARLINK-37804          
1 69302U 26119G   26177.00412604  .00049020  00000+0  89647-3 0  9990
2 69302  97.2885 202.7550 0001803 108.1628 251.9820 15.49217098  5390
STARLINK-37730          
1 69303U 26119H   26177.25002315 -.00019101  00000+0 -59148-3 0  9994
2 69303  97.2849 203.1959 0000873  54.8415 338.7635 15.33409168  5499
STARLINK-37731          
1 69304U 26119J   26177.00520424  .00045798  00000+0  83812-3 0  9998
2 69304  97.2877 202.7531 0001715  89.2753 270.8694 15.49213335  5391
STARLINK-37734          
1 69305U 26119K   26176.61256708  .02188649  00000+0  38328-1 0  9991
2 69305  97.2863 202.5212 0005360  34.3796 325.7800 15.47533383  5349
STARLINK-37701          
1 69306U 26119L   26177.25002315 -.02445839  00000+0 -71100-1 0  9990
2 69306  97.2858 203.2214 0001312  84.6194 343.2849 15.39182382  5491
STARLINK-37732          
1 69307U 26119M   26177.25002315 -.00031286  00000+0 -97068-3 0  9999
2 69307  97.2848 203.2246 0001026  90.5350   3.1147 15.33448323  5507
STARLINK-37689          
1 69308U 26119N   26177.00177049  .00051773  00000+0  94568-3 0  9993
2 69308  97.2875 202.7549 0000559 300.1291  59.9904 15.49239969  5390
STARLINK-37619          
1 69309U 26119P   26177.25002315 -.00134982  00000+0 -37853-2 0  9993
2 69309  97.2993 203.2256 0001966  65.6822  29.5531 15.37105110  5508
STARLINK-37794          
1 69310U 26119Q   26177.06479797  .00029064  00000+0  53392-3 0  9995
2 69310  97.2861 202.9769 0000746 125.2692 234.8630 15.49198257  5410
STARLINK-37795          
1 69311U 26119R   26176.99721928  .00058985  00000+0  10774-2 0  9993
2 69311  97.2874 202.7634 0000379  24.0812 336.0457 15.49206861  5396
STARLINK-37790          
1 69312U 26119S   26177.25002315 -.02750808  00000+0 -62477-1 0  9999
2 69312  97.2852 203.2227 0001943  65.3854  29.1333 15.46939590  5504
STARLINK-37676          
1 69313U 26119T   26177.25002315 -.00033283  00000+0 -10333-2 0  9994
2 69313  97.2848 203.2615 0001594  87.2690  96.4163 15.33438439  5504
STARLINK-37617          
1 69314U 26119U   26177.25002315 -.02769744  00000+0 -59116-1 0  9996
2 69314  97.2855 203.2293 0001866  79.5444  33.1776 15.48743428  5509
STARLINK-37627          
1 69315U 26119V   26177.25002315 -.01185822  00000+0 -27354-1 0  9994
2 69315  97.2851 203.2318 0002161  58.0315  59.7906 15.45289199  5508
STARLINK-37738          
1 69316U 26119W   26177.25002315 -.01154212  00000+0 -23237-1 0  9990
2 69316  97.2849 203.2344 0001864  81.1112  41.3083 15.49596042  5501
STARLINK-37799          
1 69317U 26119X   26177.25002315 -.00027863  00000+0 -86425-3 0  9991
2 69317  97.2849 203.2878 0002150  79.7676 163.8009 15.33430733  5450
STARLINK-37802          
1 69318U 26119Y   26177.25002315 -.02443836  00000+0 -66288-1 0  9999
2 69318  97.2856 203.2906 0002074  84.1283 154.4231 15.41259605  5505
STARLINK-37803          
1 69319U 26119Z   26177.25002315  .00005621  00000+0  10496-3 0  9994
2 69319  97.2858 203.1627 0000832  88.3465 219.6222 15.49181984  5455
GUOWANG TEST OBJECT A   
1 69320U 26120A   26172.81697494  .00008673  00000+0  23140-3 0  9993
2 69320  55.0017   6.9033 0011359 337.7695  22.2839 15.38939558  3409
GUOWANG TEST OBJECT B   
1 69321U 26120B   26177.16744993  .00013823  00000+0  36245-3 0  9997
2 69321  54.9979 347.3041 0011373 353.4604   6.6274 15.38949500  4078
GUOWANG TEST OBJECT C   
1 69322U 26120C   26175.53492903  .00013040  00000+0  33411-3 0  9991
2 69322  54.9990 354.5630 0011951 356.3321   3.7618 15.39708674  3824
GUOWANG TEST OBJECT D   
1 69323U 26120D   26177.09936597  .00010711  00000+0  28991-3 0  9996
2 69323  54.9973 347.5730 0011789   7.0244 353.0947 15.38223796  4061
QIANFAN-163             
1 69325U 26121A   26171.83152253  .00000035  00000+0  30105-4 0  9993
2 69325  89.0159 300.1473 0020476 178.2353 181.8879 13.59758614  2659
QIANFAN-164             
1 69326U 26121B   26175.73707148  .00000148  00000+0  18867-3 0  9991
2 69326  89.0174 299.7565 0020666 166.5026 193.6686 13.57844977  3182
SZ-22 MODULE            
1 69328U 25272C   26176.68834502  .00023442  00000+0  27908-3 0  9997
2 69328  41.4800 270.4160 0006798 159.3783 200.7331 15.60530564  4659
