OBJECT_NAME,OBJECT_ID,EPOCH,MEAN_MOTION,ECCENTRICITY,INCLINATION,RA_OF_ASC_NODE,ARG_OF_PERICENTER,MEAN_ANOMALY,EPHEMERIS_TYPE,CLASSIFICATION_TYPE,NORAD_CAT_ID,ELEMENT_SET_NO,REV_AT_EPOCH,BSTAR,MEAN_MOTION_DOT,MEAN_MOTION_DDOT
STARLINK-37519,2026-119C,2026-06-26T06:11:33.085248,15.47468758,.00038321,97.2845,203.1731,327.3413,32.7600,0,U,69298,999,544,-.2481934E-2,-.125276E-2,0
STARLINK-37455,2026-119D,2026-06-26T06:00:02.000160,15.49182734,.00013417,97.2858,203.0834,93.6275,26.4040,0,U,69299,999,534,.3952443E-3,.2146E-3,0
STARLINK-37456,2026-119E,2026-06-26T06:13:14.498112,15.44853970,.00023918,97.2854,203.1719,38.9341,321.2080,0,U,69300,999,544,-.30790454E-1,-.1302888E-1,0
STARLINK-37630,2026-119F,2026-06-26T06:16:10.426656,15.49193691,.0000641,97.2863,203.0152,46.6515,313.4790,0,U,69301,999,543,.11541588E-2,.63196E-3,0
STARLINK-37804,2026-119G,2026-06-26T00:05:56.489856,15.49217098,.00018039,97.2885,202.7550,108.1628,251.9820,0,U,69302,999,539,.89647264E-3,.4902E-3,0
STARLINK-37730,2026-119H,2026-06-26T06:00:02.000160,15.33409168,.00008734,97.2849,203.1959,54.8415,338.7635,0,U,69303,999,549,-.59148042E-3,-.19101E-3,0
STARLINK-37731,2026-119J,2026-06-26T00:07:29.646336,15.49213335,.00017157,97.2877,202.7531,89.2753,270.8694,0,U,69304,999,539,.83812171E-3,.45798E-3,0
STARLINK-37734,2026-119K,2026-06-25T14:42:05.795712,15.47533383,.00053603,97.2863,202.5212,34.3796,325.7800,0,U,69305,999,534,.38328216E-1,.2188649E-1,0
STARLINK-37701,2026-119L,2026-06-26T06:00:02.000160,15.39182382,.00013122,97.2858,203.2214,84.6194,343.2849,0,U,69306,999,549,-.71099964E-1,-.2445839E-1,0
STARLINK-37732,2026-119M,2026-06-26T06:00:02.000160,15.33448323,.00010264,97.2848,203.2246,90.5350,3.1147,0,U,69307,999,550,-.97068165E-3,-.31286E-3,0
STARLINK-37689,2026-119N,2026-06-26T00:02:32.970336,15.49239969,.00005598,97.2875,202.7549,300.1291,59.9904,0,U,69308,999,539,.94567604E-3,.51773E-3,0
STARLINK-37619,2026-119P,2026-06-26T06:00:02.000160,15.37105110,.00019667,97.2993,203.2256,65.6822,29.5531,0,U,69309,999,550,-.37853214E-2,-.134982E-2,0
STARLINK-37794,2026-119Q,2026-06-26T01:33:18.544608,15.49198257,.0000746,97.2861,202.9769,125.2692,234.8630,0,U,69310,999,541,.53391689E-3,.29064E-3,0
STARLINK-37795,2026-119R,2026-06-25T23:55:59.745792,15.49206861,.00003793,97.2874,202.7634,24.0812,336.0457,0,U,69311,999,539,.10774463E-2,.58985E-3,0
STARLINK-37790,2026-119S,2026-06-26T06:00:02.000160,15.46939590,.00019432,97.2852,203.2227,65.3854,29.1333,0,U,69312,999,550,-.62476509E-1,-.2750808E-1,0
STARLINK-37676,2026-119T,2026-06-26T06:00:02.000160,15.33438439,.0001594,97.2848,203.2615,87.2690,96.4163,0,U,69313,999,550,-.10333248E-2,-.33283E-3,0
STARLINK-37617,2026-119U,2026-06-26T06:00:02.000160,15.48743428,.00018665,97.2855,203.2293,79.5444,33.1776,0,U,69314,999,550,-.59116131E-1,-.2769744E-1,0
STARLINK-37627,2026-119V,2026-06-26T06:00:02.000160,15.45289199,.00021619,97.2851,203.2318,58.0315,59.7906,0,U,69315,999,550,-.27354364E-1,-.1185822E-1,0
STARLINK-37738,2026-119W,2026-06-26T06:00:02.000160,15.49596042,.00018642,97.2849,203.2344,81.1112,41.3083,0,U,69316,999,550,-.23236901E-1,-.1154212E-1,0
STARLINK-37799,2026-119X,2026-06-26T06:00:02.000160,15.33430733,.00021508,97.2849,203.2878,79.7676,163.8009,0,U,69317,999,545,-.864246E-3,-.27863E-3,0
STARLINK-37802,2026-119Y,2026-06-26T06:00:02.000160,15.41259605,.00020744,97.2856,203.2906,84.1283,154.4231,0,U,69318,999,550,-.66288359E-1,-.2443836E-1,0
STARLINK-37803,2026-119Z,2026-06-26T06:00:02.000160,15.49181984,.00008327,97.2858,203.1627,88.3465,219.6222,0,U,69319,999,545,.10496101E-3,.5621E-4,0
GUOWANG TEST OBJECT A,2026-120A,2026-06-21T19:36:26.634816,15.38939558,.00113591,55.0017,6.9033,337.7695,22.2839,0,U,69320,999,340,.23139514E-3,.8673E-4,0
GUOWANG TEST OBJECT B,2026-120B,2026-06-26T04:01:07.673952,15.38949500,.00113734,54.9979,347.3041,353.4604,6.6274,0,U,69321,999,407,.36244949E-3,.13823E-3,0
GUOWANG TEST OBJECT C,2026-120C,2026-06-24T12:50:17.868192,15.39708674,.00119516,54.9990,354.5630,356.3321,3.7618,0,U,69322,999,382,.33411019E-3,.1304E-3,0
GUOWANG TEST OBJECT D,2026-120D,2026-06-26T02:23:05.219808,15.38223796,.00117894,54.9973,347.5730,7.0244,353.0947,0,U,69323,999,406,.28991408E-3,.10711E-3,0
QIANFAN-163,2026-121A,2026-06-20T19:57:23.546592,13.59758614,.00204763,89.0159,300.1473,178.2353,181.8879,0,U,69325,999,265,.30105417E-4,.35E-6,0
QIANFAN-164,2026-121B,2026-06-24T17:41:22.975872,13.57844977,.00206665,89.0174,299.7565,166.5026,193.6686,0,U,69326,999,318,.18866887E-3,.148E-5,0
SZ-22 MODULE,2025-272C,2026-06-25T16:31:13.009728,15.60530564,.00067983,41.4800,270.4160,159.3783,200.7331,0,U,69328,999,465,.27908479E-3,.23442E-3,0
